NORAD_CAT_ID,OBJECT_NAME,OBJECT_TYPE,EPOCH,MEAN_MOTION,ECCENTRICITY,INCLINATION,RA_OF_ASC_NODE,ARG_OF_PERICENTER,MEAN_ANOMALY,BSTAR,MEAN_MOTION_DOT,MEAN_MOTION_DDOT,TLE_LINE0,TLE_LINE1,TLE_LINE2,SEMIMAJOR_AXIS,PERIOD,APOGEE,PERIGEE,DECAYED
49456.0,STARLINK-3124,PAYLOAD,2024-07-22 20:05:58,15.08842436,0.00011,53.2168,9.563,88.8096,271.3022,0.00028253,4.212e-05,0.0,0 STARLINK-3124,1 49456U 21104BA  24204.83748762  .00004212  00000-0  28253-3 0  9995,2 49456  53.2168   9.5630 0001100  88.8096 271.3022 15.08842436148976,6917.873,95.437,540.499,538.977,0.0
49456.0,STARLINK-3124,PAYLOAD,2024-07-23 19:56:46,15.08842623,0.0001141,53.2173,5.103,85.2259,274.8863,0.00014261,1.983e-05,0.0,0 STARLINK-3124,1 49456U 21104BA  24205.83108879  .00001983  00000-0  14261-3 0  9991,2 49456  53.2173   5.1030 0001141  85.2259 274.8863 15.08842623150191,6917.872,95.437,540.527,538.948,0.0
49456.0,STARLINK-3124,PAYLOAD,2024-07-24 05:29:05,15.08833473,0.0001099,53.2166,3.3187,93.5428,266.569,-1.7644e-05,-5.69e-06,0.0,0 STARLINK-3124,1 49456U 21104BA  24206.22853285 -.00000569  00000-0 -17644-4 0  9993,2 49456  53.2166   3.3187 0001099  93.5428 266.5690 15.08833473150254,6917.9,95.438,540.526,539.005,0.0
49456.0,STARLINK-3124,PAYLOAD,2024-07-24 10:15:14,15.08836053,0.0001336,53.2182,2.4303,105.3794,254.7345,7.5294e-05,9.1e-06,0.0,0 STARLINK-3124,1 49456U 21104BA  24206.42725504  .00000910  00000-0  75294-4 0  9990,2 49456  53.2182   2.4303 0001336 105.3794 254.7345 15.08836053149211,6917.892,95.438,540.682,538.833,0.0
49456.0,STARLINK-3124,PAYLOAD,2024-07-25 10:06:01,15.08843556,0.0001205,53.2177,357.9689,100.4693,259.6435,0.00016025,2.264e-05,0.0,0 STARLINK-3124,1 49456U 21104BA  24207.42085314  .00002264  00000-0  16025-3 0  9999,2 49456  53.2177 357.9689 0001205 100.4693 259.6435 15.08843556150435,6917.87,95.437,540.568,538.901,0.0
49456.0,STARLINK-3124,PAYLOAD,2024-07-25 19:38:20,15.08844809,0.0002256,53.2153,356.1874,77.2874,282.837,0.00019249,2.777e-05,0.0,0 STARLINK-3124,1 49456U 21104BA  24207.81829453  .00002777  00000-0  19249-3 0  9992,2 49456  53.2153 356.1874 0002256  77.2874 282.8370 15.08844809149420,6917.866,95.437,541.291,538.17,0.0
49456.0,STARLINK-3124,PAYLOAD,2024-07-26 08:21:25,15.08843464,0.000188,53.2117,353.8003,94.8444,265.2763,0.00010322,1.355e-05,0.0,0 STARLINK-3124,1 49456U 21104BA  24208.34820794  .00001355  00000-0  10322-3 0  9994,2 49456  53.2117 353.8003 0001880  94.8444 265.2763 15.08843464149504,6917.87,95.437,541.035,538.434,0.0
49456.0,STARLINK-3124,PAYLOAD,2024-07-26 16:18:21,15.08848216,0.0001062,53.2178,352.3182,78.6158,281.4953,0.00025932,3.843e-05,0.0,0 STARLINK-3124,1 49456U 21104BA  24208.67941067  .00003843  00000-0  25932-3 0  9994,2 49456  53.2178 352.3182 0001062  78.6158 281.4953 15.08848216150623,6917.855,95.437,540.455,538.986,0.0
49456.0,STARLINK-3124,PAYLOAD,2024-07-27 09:47:35,15.0883822,9.58e-05,53.215,349.0459,68.2102,291.8992,-5.7399e-05,-1.201e-05,0.0,0 STARLINK-3124,1 49456U 21104BA  24209.40805415 -.00001201  00000-0 -57399-4 0  9993,2 49456  53.2150 349.0459 0000958  68.2102 291.8992 15.08838220150734,6917.886,95.438,540.414,539.088,0.0
49456.0,STARLINK-3124,PAYLOAD,2024-07-27 19:19:54,15.08839438,0.0001095,53.215,347.2619,71.1777,288.9334,-1.8383e-05,-5.8e-06,0.0,0 STARLINK-3124,1 49456U 21104BA  24209.80549379 -.00000580  00000-0 -18383-4 0  9990,2 49456  53.2150 347.2619 0001095  71.1777 288.9334 15.08839438149722,6917.882,95.438,540.505,538.99,0.0
49456.0,STARLINK-3124,PAYLOAD,2024-07-28 12:49:08,15.08844946,0.0001192,53.217,343.9912,84.2349,275.8779,0.00019231,2.774e-05,0.0,0 STARLINK-3124,1 49456U 21104BA  24210.53413190  .00002774  00000-0  19231-3 0  9990,2 49456  53.2170 343.9912 0001192  84.2349 275.8779 15.08844946150901,6917.865,95.437,540.555,538.906,0.0
49456.0,STARLINK-3124,PAYLOAD,2024-07-28 15:59:54,15.08854895,0.0001269,53.2175,343.3966,88.3936,271.7201,0.00023414,3.442e-05,0.0,0 STARLINK-3124,1 49456U 21104BA  24210.66660654  .00003442  00000-0  23414-3 0  9994,2 49456  53.2175 343.3966 0001269  88.3936 271.7201 15.08854895150922,6917.835,95.437,540.578,538.822,0.0
49456.0,STARLINK-3124,PAYLOAD,2024-07-28 20:46:03,15.08862564,0.0001139,53.2177,342.5027,94.936,265.1762,0.00050691,7.794e-05,0.0,0 STARLINK-3124,1 49456U 21104BA  24210.86532266  .00007794  00000-0  50691-3 0  9994,2 49456  53.2177 342.5027 0001139  94.9360 265.1762 15.08862564149887,6917.811,95.436,540.464,538.888,0.0
49456.0,STARLINK-3124,PAYLOAD,2024-07-29 01:32:14,15.08834943,0.00023,53.216,341.6128,67.6031,292.5205,5.7371e-06,-1.97e-06,0.0,0 STARLINK-3124,1 49456U 21104BA  24211.06405817 -.00000197  00000-0  57371-5 0  9993,2 49456  53.2160 341.6128 0002300  67.6031 292.5205 15.08834943150983,6917.896,95.438,541.352,538.17,0.0
49456.0,STARLINK-3124,PAYLOAD,2024-07-29 19:01:28,15.08845674,0.0001116,53.2174,338.3416,80.1688,279.943,0.00014966,2.095e-05,0.0,0 STARLINK-3124,1 49456U 21104BA  24211.79268904  .00002095  00000-0  14966-3 0  9996,2 49456  53.2174 338.3416 0001116  80.1688 279.9430 15.08845674151098,6917.863,95.437,540.5,538.956,0.0
49456.0,STARLINK-3124,PAYLOAD,2024-07-30 01:23:01,15.08838059,8.92e-05,53.2183,337.1513,82.9166,277.1928,-1.0793e-05,-4.59e-06,0.0,0 STARLINK-3124,1 49456U 21104BA  24212.05765290 -.00000459  00000-0 -10793-4 0  9995,2 49456  53.2183 337.1513 0000892  82.9166 277.1928 15.08838059151130,6917.886,95.438,540.368,539.134,0.0
49456.0,STARLINK-3124,PAYLOAD,2024-07-31 12:21:31,15.0882959,0.0002049,53.2196,330.6089,83.2665,276.8561,0.00011414,1.528e-05,0.0,0 STARLINK-3124,1 49456U 21104BA  24213.51494548  .00001528  00000-0  11414-3 0  9998,2 49456  53.2196 330.6089 0002049  83.2665 276.8561 15.08829590151357,6917.912,95.438,541.195,538.36,0.0
49456.0,STARLINK-3124,PAYLOAD,2024-07-31 13:56:54,15.08827005,0.0001027,53.215,330.3135,82.2441,277.8668,-1.6196e-06,-3.13e-06,0.0,0 STARLINK-3124,1 49456U 21104BA  24213.58118315 -.00000313  00000-0 -16196-5 0  9997,2 49456  53.2150 330.3135 0001027  82.2441 277.8668 15.08827005150292,6917.92,95.438,540.496,539.075,0.0
49456.0,STARLINK-3124,PAYLOAD,2024-07-31 15:32:17,15.08840449,0.0001083,53.2172,330.0152,89.069,271.0427,0.00018518,2.661e-05,0.0,0 STARLINK-3124,1 49456U 21104BA  24213.64742023  .00002661  00000-0  18518-3 0  9997,2 49456  53.2172 330.0152 0001083  89.0690 271.0427 15.08840449151371,6917.879,95.438,540.493,538.995,0.0
49456.0,STARLINK-3124,PAYLOAD,2024-08-01 12:12:17,15.0886251,0.0001181,53.2167,326.1517,84.2023,275.9104,0.00092118,0.00014412,0.0,0 STARLINK-3124,1 49456U 21104BA  24214.50853600  .00014412  00000-0  92118-3 0  9992,2 49456  53.2167 326.1517 0001181  84.2023 275.9104 15.08862510150436,6917.812,95.436,540.494,538.86,0.0
49456.0,STARLINK-3124,PAYLOAD,2024-08-01 16:58:26,15.08884437,0.0001211,53.2169,325.256,99.4849,260.628,0.0014721,0.00023247,0.0,0 STARLINK-3124,1 49456U 21104BA  24214.70724954  .00023247  00000-0  14721-2 0  9992,2 49456  53.2169 325.2560 0001211  99.4849 260.6280 15.08884437151534,6917.745,95.435,540.447,538.772,0.0
49456.0,STARLINK-3124,PAYLOAD,2024-08-02 13:38:26,15.08825466,0.0001466,53.2169,321.3938,92.2966,267.8194,0.00013131,1.802e-05,0.0,0 STARLINK-3124,1 49456U 21104BA  24215.56836112  .00001802  00000-0  13131-3 0  9995,2 49456  53.2169 321.3938 0001466  92.2966 267.8194 15.08825466151667,6917.925,95.438,540.804,538.776,0.0
49456.0,STARLINK-3124,PAYLOAD,2024-08-03 13:29:14,15.08831246,0.0001421,53.2175,316.9342,90.5367,269.5788,0.00076416,0.00011892,0.0,0 STARLINK-3124,1 49456U 21104BA  24216.56197705  .00011892  00000-0  76416-3 0  9999,2 49456  53.2175 316.9342 0001421  90.5367 269.5788 15.08831246150749,6917.907,95.438,540.755,538.789,0.0
49456.0,STARLINK-3124,PAYLOAD,2024-08-04 13:20:01,15.08851135,0.0001387,53.2174,312.4711,84.5945,275.5205,0.00080085,0.00012484,0.0,0 STARLINK-3124,1 49456U 21104BA  24217.55557803  .00012484  00000-0  80085-3 0  9993,2 49456  53.2174 312.4711 0001387  84.5945 275.5205 15.08851135151960,6917.846,95.437,540.671,538.752,0.0
49456.0,STARLINK-3124,PAYLOAD,2024-08-04 22:52:20,15.08873076,0.000139,53.2168,310.6848,75.0605,285.0541,0.0013546,0.00021356,0.0,0 STARLINK-3124,1 49456U 21104BA  24217.95301201  .00021356  00000-0  13546-2 0  9991,2 49456  53.2168 310.6848 0001390  75.0605 285.0541 15.08873076150951,6917.779,95.435,540.606,538.683,0.0
49456.0,STARLINK-3124,PAYLOAD,2024-08-05 13:10:48,15.08846695,0.0001834,53.2188,308.0168,101.7633,258.3565,0.00018133,2.599e-05,0.0,0 STARLINK-3124,1 49456U 21104BA  24218.54917543  .00002599  00000-0  18133-3 0  9995,2 49456  53.2188 308.0168 0001834 101.7633 258.3565 15.08846695152116,6917.86,95.437,540.994,538.456,0.0
49456.0,STARLINK-3124,PAYLOAD,2024-08-05 22:43:07,15.08843352,0.0001658,53.2172,306.2326,96.3142,263.8039,0.00010588,1.398e-05,0.0,0 STARLINK-3124,1 49456U 21104BA  24218.94661595  .00001398  00000-0  10588-3 0  9994,2 49456  53.2172 306.2326 0001658  96.3142 263.8039 15.08843352151105,6917.87,95.437,540.882,538.588,0.0
49456.0,STARLINK-3124,PAYLOAD,2024-08-06 05:04:40,15.08834758,0.0002391,53.2172,305.0395,96.6494,263.4771,-9.3853e-05,-1.782e-05,0.0,0 STARLINK-3124,1 49456U 21104BA  24219.21158086 -.00001782  00000-0 -93853-4 0  9997,2 49456  53.2172 305.0395 0002391  96.6494 263.4771 15.08834758152218,6917.896,95.438,541.415,538.107,0.0
49456.0,STARLINK-3124,PAYLOAD,2024-08-06 13:01:36,15.08820402,0.0001321,53.2174,303.5561,96.7766,263.3377,-0.00029835,-5.03e-05,0.0,0 STARLINK-3124,1 49456U 21104BA  24219.54278663 -.00005030  00000-0 -29835-3 0  9995,2 49456  53.2174 303.5561 0001321  96.7766 263.3377 15.08820402152260,6917.94,95.439,540.719,538.891,0.0
49456.0,STARLINK-3124,PAYLOAD,2024-08-07 12:52:23,15.08869432,0.0001692,53.2159,299.0929,76.9517,283.1663,0.0015089,0.00023827,0.0,0 STARLINK-3124,1 49456U 21104BA  24220.53638308  .00023827  00000-0  15089-2 0  9999,2 49456  53.2159 299.0929 0001692  76.9517 283.1663 15.08869432152416,6917.79,95.436,540.826,538.485,0.0
